CYGFM08                 
1 41888U 16078E   24350.90559897  .00017625  00000+0  50874-3 0  9994
2 41888  34.9465 215.8414 0011186  58.4908 301.6901 15.34730123444054
CYGFM07                 
1 41890U 16078G   24350.90457288  .00018097  00000+0  51569-3 0  9994
2 41890  34.9485 206.6842 0008663  73.4402 286.7267 15.35154658444056
CYGFM03                 
1 41891U 16078H   24350.88826528  .00017740  00000+0  50824-3 0  9996
2 41891  34.9434 208.1464 0008194  54.7468 305.4015 15.34992973444038
FENGYUN 3D              
1 43010U 17072A   24351.17095870  .00000253  00000+0  14180-3 0  9993
2 43010  98.9377 307.1294 0001762 141.8604 218.2697 14.19521010367239
NOAA 20 (JPSS-1)        
1 43013U 17073A   24351.12048654  .00000197  00000+0  11436-3 0  9998
2 43013  98.7253 286.1163 0002173  71.6274 288.5138 14.19519525366714
GOES 17                 
1 43226U 18022A   24350.65344899 -.00000083  00000+0  00000+0 0  9992
2 43226   0.0091 235.8923 0003977  26.8361 312.6224  1.00270143 24939
FENGYUN 2H              
1 43491U 18050A   24350.78717800 -.00000123  00000+0  00000+0 0  9992
2 43491   1.6147  85.5384 0001533 169.5587 192.5020  1.00272757 23946
METOP-C                 
1 43689U 18087A   24351.16651055  .00000318  00000+0  16537-3 0  9994
2 43689  98.7011  48.0946 0000324 326.8085  33.3072 14.21494994316971
GEO-KOMPSAT-2A          
1 43823U 18100A   24351.05000826 -.00000337  00000+0  00000+0 0  9998
2 43823   0.0521 122.8065 0000224  65.4550  43.2006  1.00270942 22168
METEOR-M2 2             
1 44387U 19038A   24351.13763135  .00000306  00000+0  15256-3 0  9991
2 44387  98.8525 321.3245 0001854 125.2336 234.9016 14.24090758283283
ARKTIKA-M 1             
1 47719U 21016A   24341.22533358  .00000148  00000+0  00000+0 0  9994
2 47719  63.1351 131.6510 7009744 268.4762  17.4646  2.00604882 27593
FENGYUN 3E              
1 49008U 21062A   24351.16700172  .00000073  00000+0  55308-4 0  9995
2 49008  98.7383 350.0699 0001037 186.8651 173.2511 14.19823623178813
GOES 18                 
1 51850U 22021A   24350.92587427  .00000104  00000+0  00000+0 0  9997
2 51850   0.0085 106.1825 0000838 191.9314 343.2730  1.00273503 10301
NOAA 21 (JPSS-2)        
1 54234U 22150A   24350.87638576  .00000238  00000+0  13333-3 0  9990
2 54234  98.7106 286.4557 0001373  22.4760 337.6476 14.19569831108757
METEOSAT-12 (MTG-I1)    
1 54743U 22170C   24351.14702097 -.00000001  00000+0  00000+0 0  9990
2 54743   0.5919  37.4945 0001734 222.7596 237.6384  1.00269381  7470
TIANMU-1 03             
1 55973U 23039A   24351.16164490  .00016184  00000+0  57711-3 0  9995
2 55973  97.4824 141.6430 0003664 255.5013 104.5820 15.28974292 96592
TIANMU-1 04             
1 55974U 23039B   24351.13108209  .00016194  00000+0  57471-3 0  9993
2 55974  97.4749 141.0216 0004643 252.5076 107.5657 15.29127546 96582
TIANMU-1 05             
1 55975U 23039C   24351.12918212  .00016147  00000+0  57600-3 0  9998
2 55975  97.4795 141.4286 0003309 279.1965  80.8900 15.28963337 96573
TIANMU-1 06             
1 55976U 23039D   24351.15203029  .00015691  00000+0  55533-3 0  9991
2 55976  97.4810 141.6632 0003762 275.6749  84.4061 15.29227439 96589
METEOR-M2 3             
1 57166U 23091A   24351.10969035  .00000074  00000+0  51293-4 0  9992
2 57166  98.6894  43.9301 0003386 336.8198  23.2827 14.23960525 76519
TIANMU-1 07             
1 57399U 23101A   24351.09849529  .00010619  00000+0  47569-3 0  9991
2 57399  97.3392  43.3904 0003036 274.0098  86.0791 15.21424284 78046
TIANMU-1 08             
1 57400U 23101B   24351.13200459  .00009615  00000+0  43060-3 0  9998
2 57400  97.3380  43.2737 0005230 279.5164  80.5481 15.21451634 78045
TIANMU-1 09             
1 57401U 23101C   24351.11601662  .00010287  00000+0  46091-3 0  9992
2 57401  97.3334  42.9909 0005054 276.0923  83.9737 15.21417247 78044
TIANMU-1 10             
1 57402U 23101D   24351.14902950  .00010441  00000+0  46739-3 0  9991
2 57402  97.3417  43.4883 0007052 273.4154  86.6275 15.21432882 78040
FENGYUN 3F              
1 57490U 23111A   24351.17928598  .00000215  00000+0  12201-3 0  9993
2 57490  98.7508  58.4610 0000260  59.6086 300.5116 14.19957241 71096
ARKTIKA-M 2             
1 58584U 23198A   24349.93411926  .00000144  00000+0  00000+0 0  9997
2 58584  63.2372 214.7676 6912733 269.4694  17.9503  2.00616770  7291
TIANMU-1 11             
1 58645U 23205A   24351.12948685  .00008682  00000+0  41870-3 0  9994
2 58645  97.3883  11.8289 0012084 125.7059 234.5302 15.18872393 54095
TIANMU-1 12             
1 58646U 23205B   24351.14663742  .00009577  00000+0  46224-3 0  9997
2 58646  97.3868  11.7385 0010148 118.3793 241.8466 15.18834490 54084
TIANMU-1 13             
1 58647U 23205C   24351.11347757  .00008618  00000+0  41609-3 0  9997
2 58647  97.3898  11.7707 0010859 101.8260 258.4193 15.18849744 54079
TIANMU-1 14             
1 58648U 23205D   24351.09748043  .00008911  00000+0  43015-3 0  9997
2 58648  97.3824  11.4424 0011374 105.2367 255.0126 15.18840848 54076
TIANMU-1 19             
1 58660U 23208A   24351.14141067  .00011663  00000+0  54943-3 0  9993
2 58660  97.4209  99.6261 0007377  92.0317 268.1763 15.19646324 53751
TIANMU-1 20             
1 58661U 23208B   24351.15112753  .00011350  00000+0  51575-3 0  9996
2 58661  97.4143  99.7320 0010155 101.2236 259.0142 15.20876440 53786
TIANMU-1 21             
1 58662U 23208C   24351.14483406  .00013040  00000+0  56881-3 0  9995
2 58662  97.4182 100.3765 0009661 100.6456 259.5868 15.22246678 53819
TIANMU-1 22             
1 58663U 23208D   24351.13934260  .00011432  00000+0  53534-3 0  9999
2 58663  97.4201  99.7163 0005817 112.1042 248.0811 15.19867281 53763
TIANMU-1 15             
1 58700U 24004A   24351.15867996  .00009721  00000+0  46834-3 0  9992
2 58700  97.4590 169.4170 0009795 126.2481 233.9660 15.18900770 52350
TIANMU-1 16             
1 58701U 24004B   24351.14086155  .00009587  00000+0  46296-3 0  9994
2 58701  97.4518 169.1093 0009852 128.7911 231.4204 15.18823939 52359
TIANMU-1 17             
1 58702U 24004C   24351.12581965  .00010359  00000+0  49909-3 0  9995
2 58702  97.4559 169.3242 0008252 124.2188 235.9829 15.18895162 52341
TIANMU-1 18             
1 58703U 24004D   24351.10862497  .00010058  00000+0  48487-3 0  9992
2 58703  97.4578 169.4192 0008046 117.1032 243.1024 15.18884269 52342
INSAT-3DS               
1 58990U 24033A   24351.13035507 -.00000149  00000+0  00000+0 0  9995
2 58990   0.0200  46.7283 0001870 221.7777 305.7603  1.00271544  3320
METEOR-M2 4             
1 59051U 24039A   24351.13025489  .00000102  00000+0  65519-4 0  9997
2 59051  98.6250 308.7809 0006458 325.2505  34.8251 14.22313748 41353
GOES 19                 
1 60133U 24119A   24350.36370748 -.00000174  00000+0  00000+0 0  9993
2 60133   0.0202 171.1437 0001211 133.1908 181.6383  1.00271972  1801
